{
  "type": "FeatureCollection",
  "features": [
    {
      "type": "Feature",
      "properties": {
        "name": "Mechanical, Manufacturing and Biomedical Engineering",
        "description": "**Mechanical, Manufacturing and Biomedical Engineering** — Trinity College Dublin, Dublin (IE)<br><br>The Discipline of Mechanical, Manufacturing and Biomedical Engineering at Trinity College Dublin. Research is characterised by interdisciplinary collaboration within the department and with life sciences, natural sciences, physics, computer science, and civil and electronic engineering. Funding comes from national and European sources as well as directly from industry, philanthropy and academic partners overseas.<br>Research areas: biomedical engineering; fluids, acoustics and vibration; fluids and heat transfer; forensic engineering; fracture and fatigue of materials; nanotechnology for energy and environment; robotics; and STAM (Science and Technology in Advanced Manufacturing).<br><br>[[https://www.tcd.ie/mecheng/|Group website]]<br><br>Category: Biomedical Lab · Smallest demonstrated: unknown",
        "id": "tcd-mmbe",
        "pi": "",
        "institution": "Trinity College Dublin",
        "country": "IE",
        "category": "biomedical-lab",
        "application": "medical,industrial,fundamental",
        "onboard_power": "no",
        "institution_type": "university",
        "status": "watch",
        "relevance": "2",
        "min_dim_um": "unknown",
        "_umap_options": {
          "color": "DarkGreen",
          "iconClass": "Ball"
        }
      },
      "geometry": {
        "type": "Point",
        "coordinates": [
          -6.252599,
          53.342204
        ]
      }
    },
    {
      "type": "Feature",
      "properties": {
        "name": "Mechanical, Manufacturing and Biomedical Engineering",
        "description": "**Mechanical, Manufacturing and Biomedical Engineering** — Trinity College Dublin, Dublin (IE)<br><br>The Discipline of Mechanical, Manufacturing and Biomedical Engineering at Trinity College Dublin. Research is characterised by interdisciplinary collaboration within the department and with life sciences, natural sciences, physics, computer science, and civil and electronic engineering. Funding comes from national and European sources as well as directly from industry, philanthropy and academic partners overseas.<br>Research areas: biomedical engineering; fluids, acoustics and vibration; fluids and heat transfer; forensic engineering; fracture and fatigue of materials; nanotechnology for energy and environment; robotics; and STAM (Science and Technology in Advanced Manufacturing).<br><br>[[https://www.tcd.ie/mecheng/|Group website]]<br><br>Category: Biomedical Lab · Smallest demonstrated: unknown",
        "id": "tcd-mmbe",
        "pi": "",
        "institution": "Trinity College Dublin",
        "country": "IE",
        "category": "biomedical-lab",
        "application": "medical,industrial,fundamental",
        "onboard_power": "no",
        "institution_type": "university",
        "status": "watch",
        "relevance": "2",
        "min_dim_um": "unknown",
        "_umap_options": {
          "color": "DarkGreen",
          "opacity": 0.5,
          "weight": 3.5,
          "fillOpacity": 0.3
        }
      },
      "geometry": {
        "coordinates": [
          [
            [
              -6.252709,
              53.342089
            ],
            [
              -6.252138,
              53.342241
            ],
            [
              -6.252229,
              53.342356
            ],
            [
              -6.252264,
              53.34236
            ],
            [
              -6.252253,
              53.342398
            ],
            [
              -6.251728,
              53.342345
            ],
            [
              -6.251677,
              53.34246
            ],
            [
              -6.252283,
              53.342537
            ],
            [
              -6.252302,
              53.342518
            ],
            [
              -6.252543,
              53.342544
            ],
            [
              -6.252648,
              53.342508
            ],
            [
              -6.25257,
              53.342412
            ],
            [
              -6.252755,
              53.342339
            ],
            [
              -6.252819,
              53.34222
            ],
            [
              -6.252787,
              53.342174
            ],
            [
              -6.252709,
              53.342089
            ]
          ]
        ],
        "type": "Polygon"
      }
    }
  ]
}
