{
  "type": "FeatureCollection",
  "features": [
    {
      "type": "Feature",
      "properties": {
        "name": "ChipFoundry.io",
        "description": "**ChipFoundry.io** — ChipFoundry, San Francisco Bay Area, CA (US)<br><br>Chip design and fabrication service built on SkyWater 130nm with an open-source PDK and open-source toolchain, offering chipIgnite tapeouts at $14,950 plus an educational chipDiscover program. Founded by former Efabless leadership (Jeff DiCorpo, Mohamed Kassem) after Efabless shut down in early 2025, re-enabling the same SkyWater 130 access route the open-source silicon community had relied on.<br><br>[[https://chipfoundry.io/|Group website]]<br><br>Category: Clean Room Service · Smallest demonstrated: unknown",
        "id": "chipfoundry",
        "pi": "",
        "institution": "ChipFoundry",
        "country": "US",
        "category": "cleanroom-service",
        "application": "fundamental,industrial",
        "onboard_power": "no",
        "institution_type": "company",
        "status": "watch",
        "relevance": "5",
        "min_dim_um": "unknown",
        "_umap_options": {
          "color": "SlateGray",
          "iconClass": "Ball"
        }
      },
      "geometry": {
        "type": "Point",
        "coordinates": [
          -121.8863,
          37.3382
        ]
      }
    },
    {
      "type": "Feature",
      "properties": {
        "name": "EUROPRACTICE",
        "description": "**EUROPRACTICE** — EUROPRACTICE (imec-coordinated consortium), Leuven (BE)<br><br>European Commission-launched consortium (since 1995) of five research organizations, led by imec, providing academia and industry with affordable Multi-Project-Wafer (MPW) prototyping across a wide range of processes -- digital, RF, mixed-signal, high-voltage ASICs, MEMS, photonics, microfluidics, flexible electronics, compound semiconductors -- plus ~65,000 concurrent EDA tool licenses distributed to European universities annually and training programs.<br><br>[[https://europractice-ic.com/|Group website]]<br><br>Category: Clean Room Service · Smallest demonstrated: unknown",
        "id": "europractice",
        "pi": "",
        "institution": "EUROPRACTICE (imec-coordinated consortium)",
        "country": "BE",
        "category": "cleanroom-service",
        "application": "fundamental,industrial",
        "onboard_power": "no",
        "institution_type": "institute",
        "status": "watch",
        "relevance": "5",
        "min_dim_um": "unknown",
        "_umap_options": {
          "color": "SlateGray",
          "iconClass": "Ball"
        }
      },
      "geometry": {
        "type": "Point",
        "coordinates": [
          4.67956,
          50.86539
        ]
      }
    },
    {
      "type": "Feature",
      "properties": {
        "name": "Fraunhofer IPMS",
        "description": "**Fraunhofer IPMS** — Fraunhofer Institute for Photonic Microsystems, Dresden (DE)<br><br>Applied research institute for photonic and electronic microsystems, nanoelectronics, microdisplays, and wireless data communication. Operates a 1500 m2, ISO 14644-1 class 4 MOEMS/MEMS cleanroom supporting technology development up to pilot production on 200 mm wafers, plus wafer processing, characterization/test, and packaging/interconnection services. One of only two German research institutions -- alongside Fraunhofer IZM-ASSID -- with 300 mm wafer capability.<br><br>[[https://www.ipms.fraunhofer.de/en.html|Group website]]<br><br>Category: Clean Room Service · Smallest demonstrated: unknown",
        "id": "fraunhofer-ipms",
        "pi": "",
        "institution": "Fraunhofer Institute for Photonic Microsystems",
        "country": "DE",
        "category": "cleanroom-service",
        "application": "fundamental,industrial",
        "onboard_power": "no",
        "institution_type": "institute",
        "status": "watch",
        "relevance": "4",
        "min_dim_um": "unknown",
        "_umap_options": {
          "color": "SlateGray",
          "iconClass": "Ball"
        }
      },
      "geometry": {
        "type": "Point",
        "coordinates": [
          13.78449,
          51.1256
        ]
      }
    },
    {
      "type": "Feature",
      "properties": {
        "name": "IHP Research & Prototyping Service",
        "description": "**René Scholz** — IHP – Leibniz-Institut für innovative Mikroelektronik, Frankfurt (Oder) (DE)<br><br>Research & Prototyping Service<br>The Research & Prototyping Service group coordinates service and industry relevant development activities within Technology Department.<br><br>Please check our website for details or contact us directly to discuss your special request.<br><br>Multi Project Wafer Runs with 0.13 and 0.25 μm SiGe BiCMOS technologies and Silicon Photonics technologies are regularly organized. Here new technologies can be used in research and benchmarking projects. Stable technologies are offered for development projects towards functional prototypes.<br><br>Our stable and qualified technologies are also available as foundry service for low volume production via IHP Solutions.<br><br>To support customer developments, we offer wafer-level measurements from device level to functional testing of complex analog and digital circuits.<br><br>IHP has a wide range of failure mode analysis and analytical diagnostics equipment that can be offered to support customer projects.<br><br>If you are missing special features or need dedicated wafer preparations based on Si technology, we offer a technology development service that goes beyond our standard offerings. This includes developments of single process steps up to modules and adaptations of existing technologies.<br><br>To apply our technologies and developments to high-volume production, IHP offers technology transfer to commercial foundries.<br><br>[[https://www.ihp-microelectronics.com/services/research-and-prototyping-service|Group website]]<br><br>Category: Clean Room Service · Smallest demonstrated: unknown",
        "id": "ihp-cleanroom",
        "pi": "René Scholz",
        "institution": "IHP – Leibniz-Institut für innovative Mikroelektronik",
        "country": "DE",
        "category": "cleanroom-service",
        "application": "",
        "onboard_power": "no",
        "institution_type": "institute",
        "status": "watch",
        "relevance": "1",
        "min_dim_um": "unknown",
        "_umap_options": {
          "color": "SlateGray",
          "iconClass": "Ball"
        }
      },
      "geometry": {
        "type": "Point",
        "coordinates": [
          14.49263,
          52.3181
        ]
      }
    },
    {
      "type": "Feature",
      "properties": {
        "name": "IHP Research & Prototyping Service",
        "description": "**René Scholz** — IHP – Leibniz-Institut für innovative Mikroelektronik, Frankfurt (Oder) (DE)<br><br>Research & Prototyping Service<br>The Research & Prototyping Service group coordinates service and industry relevant development activities within Technology Department.<br><br>Please check our website for details or contact us directly to discuss your special request.<br><br>Multi Project Wafer Runs with 0.13 and 0.25 μm SiGe BiCMOS technologies and Silicon Photonics technologies are regularly organized. Here new technologies can be used in research and benchmarking projects. Stable technologies are offered for development projects towards functional prototypes.<br><br>Our stable and qualified technologies are also available as foundry service for low volume production via IHP Solutions.<br><br>To support customer developments, we offer wafer-level measurements from device level to functional testing of complex analog and digital circuits.<br><br>IHP has a wide range of failure mode analysis and analytical diagnostics equipment that can be offered to support customer projects.<br><br>If you are missing special features or need dedicated wafer preparations based on Si technology, we offer a technology development service that goes beyond our standard offerings. This includes developments of single process steps up to modules and adaptations of existing technologies.<br><br>To apply our technologies and developments to high-volume production, IHP offers technology transfer to commercial foundries.<br><br>[[https://www.ihp-microelectronics.com/services/research-and-prototyping-service|Group website]]<br><br>Category: Clean Room Service · Smallest demonstrated: unknown",
        "id": "ihp-cleanroom",
        "pi": "René Scholz",
        "institution": "IHP – Leibniz-Institut für innovative Mikroelektronik",
        "country": "DE",
        "category": "cleanroom-service",
        "application": "",
        "onboard_power": "no",
        "institution_type": "institute",
        "status": "watch",
        "relevance": "1",
        "min_dim_um": "unknown",
        "_umap_options": {
          "color": "SlateGray",
          "opacity": 0.5,
          "weight": 3.5,
          "fillOpacity": 0.3
        }
      },
      "geometry": {
        "coordinates": [
          [
            [
              14.491031,
              52.318648
            ],
            [
              14.491444,
              52.317648
            ],
            [
              14.491675,
              52.317645
            ],
            [
              14.491648,
              52.317369
            ],
            [
              14.49388,
              52.317081
            ],
            [
              14.494105,
              52.318393
            ],
            [
              14.494019,
              52.318475
            ],
            [
              14.491031,
              52.318648
            ]
          ]
        ],
        "type": "Polygon"
      }
    }
  ]
}
