{
  "type": "FeatureCollection",
  "features": [
    {
      "type": "Feature",
      "properties": {
        "name": "Itai Cohen Group",
        "description": "**Itai Cohen** — Cornell University, Ithaca, NY (US)<br><br>Builds microscopic robots -- roughly 5 microns thick, 40-70 microns long, the size of a paramecium -- from a simple circuit with silicon photovoltaics as torso and brain, and electrochemical actuators as legs. Shining laser light on the photovoltaics walks the robots. Demonstrated up to ~1 million robots fabricated per silicon wafer.<br><br>**Why it's on this map:** Builds genuinely autonomous, sub-100-micron robots with onboard photovoltaic power and onboard actuation -- about as close a match as exists anywhere to a real whole-system microrobot, and a strong technical reference point.<br><br>[[https://cohengroup.lassp.cornell.edu/|Group website]]<br><br>Category: Micro-Robotics Lab · Smallest demonstrated: 5 µm",
        "id": "cornell-cohen",
        "pi": "Itai Cohen",
        "institution": "Cornell University",
        "country": "US",
        "category": "micro-robotics",
        "application": "fundamental",
        "onboard_power": "yes",
        "institution_type": "university",
        "status": "watch",
        "human_reviewed": "no",
        "relevance": "5",
        "min_dim_um": "5",
        "_umap_options": {
          "color": "DarkBlue",
          "iconClass": "Ball"
        }
      },
      "geometry": {
        "type": "Point",
        "coordinates": [
          -76.48006,
          42.45292
        ]
      }
    },
    {
      "type": "Feature",
      "properties": {
        "name": "Paul McEuen Group",
        "description": "**Paul McEuen** — Cornell University, Ithaca, NY (US)<br><br>Room 109<br>https://physics.cornell.edu/paul-mceuen<br><br><br><br>The science and technology of nanostructures, particularly carbon-based systems such as nanotubes and graphene; novel fabrication techniques at the nanometer scale; micro- and nanoscale machines and active matter; assembly and measurement of chemical and biological nanostructures<br>Research Focus<br><br>Our research focuses on the fabrication and study of nanostructures.  We use these structures to span the gap between the macroscopic and molecular worlds, exploring electronics, optics, mechanics, chemistry and biology at the nanoscale. Current research ranges from the use of carbon nanotubes for optoelectronics and mechanics to the use of graphene and other 2D materials for atomic-scale origami, active materials, and micro and nanomachines.<br><br>**Why it's on this map:** Works on nanostructure fabrication and micro/nanoscale active matter and machines -- closely related in technique to sub-millimeter robotics, part of a small cluster of collaborating groups at the same university.<br><br>[[https://physics.cornell.edu/paul-mceuen|Group website]]<br><br>Category: Micro-Robotics Lab · Smallest demonstrated: unknown",
        "id": "cornell-mceuen",
        "pi": "Paul McEuen",
        "institution": "Cornell University",
        "country": "US",
        "category": "micro-robotics",
        "application": "",
        "onboard_power": "yes",
        "institution_type": "university",
        "status": "watch",
        "human_reviewed": "no",
        "relevance": "1",
        "min_dim_um": "unknown",
        "_umap_options": {
          "color": "DarkBlue",
          "iconClass": "Ball"
        }
      },
      "geometry": {
        "type": "Point",
        "coordinates": [
          -76.48112,
          42.44979
        ]
      }
    },
    {
      "type": "Feature",
      "properties": {
        "name": "Paul McEuen Group",
        "description": "**Paul McEuen** — Cornell University, Ithaca, NY (US)<br><br>Room 109<br>https://physics.cornell.edu/paul-mceuen<br><br><br><br>The science and technology of nanostructures, particularly carbon-based systems such as nanotubes and graphene; novel fabrication techniques at the nanometer scale; micro- and nanoscale machines and active matter; assembly and measurement of chemical and biological nanostructures<br>Research Focus<br><br>Our research focuses on the fabrication and study of nanostructures.  We use these structures to span the gap between the macroscopic and molecular worlds, exploring electronics, optics, mechanics, chemistry and biology at the nanoscale. Current research ranges from the use of carbon nanotubes for optoelectronics and mechanics to the use of graphene and other 2D materials for atomic-scale origami, active materials, and micro and nanomachines.<br><br>**Why it's on this map:** Works on nanostructure fabrication and micro/nanoscale active matter and machines -- closely related in technique to sub-millimeter robotics, part of a small cluster of collaborating groups at the same university.<br><br>[[https://physics.cornell.edu/paul-mceuen|Group website]]<br><br>Category: Micro-Robotics Lab · Smallest demonstrated: unknown",
        "id": "cornell-mceuen",
        "pi": "Paul McEuen",
        "institution": "Cornell University",
        "country": "US",
        "category": "micro-robotics",
        "application": "",
        "onboard_power": "yes",
        "institution_type": "university",
        "status": "watch",
        "human_reviewed": "no",
        "relevance": "1",
        "min_dim_um": "unknown",
        "_umap_options": {
          "color": "DarkBlue",
          "opacity": 0.5,
          "weight": 3.5,
          "fillOpacity": 0.3
        }
      },
      "geometry": {
        "coordinates": [
          [
            [
              -76.481541,
              42.449373
            ],
            [
              -76.481345,
              42.449371
            ],
            [
              -76.481331,
              42.449345
            ],
            [
              -76.480889,
              42.449355
            ],
            [
              -76.480929,
              42.450243
            ],
            [
              -76.48138,
              42.450238
            ],
            [
              -76.48138,
              42.450194
            ],
            [
              -76.481355,
              42.450192
            ],
            [
              -76.481313,
              42.44963
            ],
            [
              -76.481331,
              42.449511
            ],
            [
              -76.481562,
              42.449493
            ],
            [
              -76.481541,
              42.449373
            ]
          ]
        ],
        "type": "Polygon"
      }
    },
    {
      "type": "Feature",
      "properties": {
        "name": "Oliver G. Schmidt's Lab",
        "description": "**Oliver G. Schmidt** — TU Chemnitz, Chemnitz (DE)<br><br>Research areas: microrobotics and micromotors; biomedical applications; flexible and shapeable electronics; energy storage at the micro/nanoscale; magnetoelectronics; micro- and nanoelectronics; microfluidics; plasmonics.<br><br>**Latest research/products of interest:** SMARTLET microrobot, MICMOS microrobot<br><br>**Why it's on this map:** One of a small number of groups worldwide that build genuinely whole, autonomous sub-millimeter robotic systems -- a top-tier reference point, and unusually close geographically.<br><br>[[https://www.tu-chemnitz.de/etit/nano/OliverGSchmidt.php|Group website]]<br><br>Category: Micro-Robotics Lab · Smallest demonstrated: 100 µm",
        "id": "tuc-schmidt",
        "pi": "Oliver G. Schmidt",
        "institution": "TU Chemnitz",
        "country": "DE",
        "category": "micro-robotics",
        "application": "medical,fundamental",
        "onboard_power": "yes",
        "institution_type": "university",
        "status": "collaborating",
        "human_reviewed": "yes",
        "relevance": "5",
        "min_dim_um": "100",
        "_umap_options": {
          "color": "DarkBlue",
          "iconClass": "Ball"
        }
      },
      "geometry": {
        "type": "Point",
        "coordinates": [
          12.927099,
          50.817951
        ]
      }
    },
    {
      "type": "Feature",
      "properties": {
        "name": "Oliver G. Schmidt's Lab",
        "description": "**Oliver G. Schmidt** — TU Chemnitz, Chemnitz (DE)<br><br>Research areas: microrobotics and micromotors; biomedical applications; flexible and shapeable electronics; energy storage at the micro/nanoscale; magnetoelectronics; micro- and nanoelectronics; microfluidics; plasmonics.<br><br>**Latest research/products of interest:** SMARTLET microrobot, MICMOS microrobot<br><br>**Why it's on this map:** One of a small number of groups worldwide that build genuinely whole, autonomous sub-millimeter robotic systems -- a top-tier reference point, and unusually close geographically.<br><br>[[https://www.tu-chemnitz.de/etit/nano/OliverGSchmidt.php|Group website]]<br><br>Category: Micro-Robotics Lab · Smallest demonstrated: 100 µm",
        "id": "tuc-schmidt",
        "pi": "Oliver G. Schmidt",
        "institution": "TU Chemnitz",
        "country": "DE",
        "category": "micro-robotics",
        "application": "medical,fundamental",
        "onboard_power": "yes",
        "institution_type": "university",
        "status": "collaborating",
        "human_reviewed": "yes",
        "relevance": "5",
        "min_dim_um": "100",
        "_umap_options": {
          "color": "DarkBlue",
          "opacity": 0.5,
          "weight": 3.5,
          "fillOpacity": 0.3
        }
      },
      "geometry": {
        "coordinates": [
          [
            [
              12.926407,
              50.817798
            ],
            [
              12.926576,
              50.817605
            ],
            [
              12.927566,
              50.817959
            ],
            [
              12.927413,
              50.818146
            ],
            [
              12.926407,
              50.817798
            ]
          ]
        ],
        "type": "Polygon"
      }
    },
    {
      "type": "Feature",
      "properties": {
        "name": "Miskin Lab",
        "description": "**Marc Miskin** — University of Pennsylvania, Philadelphia, PA (US)<br><br>Legend of Legends<br><br>First and only real Microrobotic Lab imo<br><br>https://miskinlab.seas.upenn.edu/home<br><br>**Why it's on this map:** An established leading group in self-folding, sub-100-micron autonomous microrobots with onboard photovoltaic power -- one of the field's most directly relevant labs, migrated from an earlier map version without yet being individually rescored.<br><br>[[https://miskinlab.seas.upenn.edu/home|Group website]]<br><br>Category: Micro-Robotics Lab · Smallest demonstrated: unknown",
        "id": "upenn-miskin",
        "pi": "Marc Miskin",
        "institution": "University of Pennsylvania",
        "country": "US",
        "category": "micro-robotics",
        "application": "",
        "onboard_power": "yes",
        "institution_type": "university",
        "status": "watch",
        "human_reviewed": "no",
        "relevance": "1",
        "min_dim_um": "unknown",
        "_umap_options": {
          "color": "DarkBlue",
          "iconClass": "Ball"
        }
      },
      "geometry": {
        "type": "Point",
        "coordinates": [
          -75.191,
          39.95177
        ]
      }
    },
    {
      "type": "Feature",
      "properties": {
        "name": "Miskin Lab",
        "description": "**Marc Miskin** — University of Pennsylvania, Philadelphia, PA (US)<br><br>Legend of Legends<br><br>First and only real Microrobotic Lab imo<br><br>https://miskinlab.seas.upenn.edu/home<br><br>**Why it's on this map:** An established leading group in self-folding, sub-100-micron autonomous microrobots with onboard photovoltaic power -- one of the field's most directly relevant labs, migrated from an earlier map version without yet being individually rescored.<br><br>[[https://miskinlab.seas.upenn.edu/home|Group website]]<br><br>Category: Micro-Robotics Lab · Smallest demonstrated: unknown",
        "id": "upenn-miskin",
        "pi": "Marc Miskin",
        "institution": "University of Pennsylvania",
        "country": "US",
        "category": "micro-robotics",
        "application": "",
        "onboard_power": "yes",
        "institution_type": "university",
        "status": "watch",
        "human_reviewed": "no",
        "relevance": "1",
        "min_dim_um": "unknown",
        "_umap_options": {
          "color": "DarkBlue",
          "opacity": 0.5,
          "weight": 3.5,
          "fillOpacity": 0.3
        }
      },
      "geometry": {
        "coordinates": [
          [
            [
              -75.191519,
              39.951662
            ],
            [
              -75.191387,
              39.951639
            ],
            [
              -75.191379,
              39.951608
            ],
            [
              -75.190601,
              39.951513
            ],
            [
              -75.190588,
              39.951534
            ],
            [
              -75.190457,
              39.951526
            ],
            [
              -75.190387,
              39.951896
            ],
            [
              -75.190832,
              39.951951
            ],
            [
              -75.190832,
              39.951984
            ],
            [
              -75.190966,
              39.952007
            ],
            [
              -75.190969,
              39.95197
            ],
            [
              -75.191291,
              39.951997
            ],
            [
              -75.191267,
              39.952153
            ],
            [
              -75.191409,
              39.952178
            ],
            [
              -75.191519,
              39.951662
            ]
          ]
        ],
        "type": "Polygon"
      }
    },
    {
      "type": "Feature",
      "properties": {
        "name": "Intelligent Microrobotics Laboratory (IML)",
        "description": "**Wei Wang** — Westlake University, Hangzhou (CN)<br><br>Designs and fabricates CMOS-circuit-compatible intelligent microrobotics: CMOS circuit design for microrobotics, structure design for micro machines, and nanofabrication for building them. Research interests include micro-robotics, origami, MEMS, and cilia-based actuation.<br><br>**Why it's on this map:** Works on microrobotics designed to be compatible with standard CMOS circuit fabrication -- an unusually close match for anyone pursuing a chip-fabrication-based approach to building small autonomous robots.<br><br>[[https://wangwei.lab.westlake.edu.cn/|Group website]]<br><br>Category: Micro-Robotics Lab · Smallest demonstrated: unknown",
        "id": "westlake-wang",
        "pi": "Wei Wang",
        "institution": "Westlake University",
        "country": "CN",
        "category": "micro-robotics",
        "application": "fundamental,industrial",
        "onboard_power": "yes",
        "institution_type": "university",
        "status": "watch",
        "human_reviewed": "no",
        "relevance": "5",
        "min_dim_um": "unknown",
        "_umap_options": {
          "color": "DarkBlue",
          "iconClass": "Ball"
        }
      },
      "geometry": {
        "type": "Point",
        "coordinates": [
          120.03197,
          30.33598
        ]
      }
    }
  ]
}
