{
  "type": "FeatureCollection",
  "features": [
    {
      "type": "Feature",
      "properties": {
        "name": "Generation Lab",
        "description": "**Irina Conboy** — Generation Lab, Berkeley, CA (US)<br><br>Longevity diagnostics company co-founded by Irina Conboy (UC Berkeley bioengineering), combining a cheek-swab test with proprietary techniques to measure molecular markers of biological aging and disease risk.<br><br>[[https://www.generationlab.com/about|Group website]]<br><br>Category: Nano-Medicine · Smallest demonstrated: unknown",
        "id": "generation-lab",
        "pi": "Irina Conboy",
        "institution": "Generation Lab",
        "country": "US",
        "category": "nano-medicine",
        "application": "medical",
        "onboard_power": "no",
        "institution_type": "company",
        "status": "watch",
        "relevance": "2",
        "min_dim_um": "unknown",
        "_umap_options": {
          "color": "MediumSeaGreen",
          "iconClass": "Ball"
        }
      },
      "geometry": {
        "type": "Point",
        "coordinates": [
          -122.26568,
          37.87078
        ]
      }
    },
    {
      "type": "Feature",
      "properties": {
        "name": "Nanobiotix",
        "description": "**Nanobiotix** — Nanobiotix, Paris (FR)<br><br>Publicly traded (Euronext: NANO, Nasdaq: NBTX) nanomedicine company developing NBTXR3, a nanoparticle radioenhancer -- CE-marked since 2019 for locally advanced soft tissue sarcoma across 27 European countries under the brand Hensify, with an ongoing Phase 3 head and neck cancer program. Incorporated 2003, headquartered in Paris.<br><br>[[https://nanobiotix.com/|Group website]]<br><br>Category: Nano-Medicine · Smallest demonstrated: unknown",
        "id": "nanobiotix",
        "pi": "",
        "institution": "Nanobiotix",
        "country": "FR",
        "category": "nano-medicine",
        "application": "medical",
        "onboard_power": "no",
        "institution_type": "company",
        "status": "watch",
        "relevance": "3",
        "min_dim_um": "unknown",
        "_umap_options": {
          "color": "MediumSeaGreen",
          "iconClass": "Ball"
        }
      },
      "geometry": {
        "type": "Point",
        "coordinates": [
          2.39816,
          48.83526
        ]
      }
    }
  ]
}
